IRIDIUM 144             
1 43249U 18030A   25126.20105872  .00000364  00000+0  12281-3 0  9994
2 43249  86.3927 100.5613 0002385  90.5713 269.5756 14.34217314371829
IRIDIUM 149             
1 43250U 18030B   25126.90508644  .00000303  00000+0  10122-3 0  9992
2 43250  86.3926 100.2383 0002432  89.8786 270.2688 14.34217108371920
IRIDIUM 157             
1 43251U 18030C   25126.85434319  .00000046  00000+0  93859-5 0  9998
2 43251  86.3928 100.3038 0002253  81.3074 278.8377 14.34218375371891
IRIDIUM 140             
1 43252U 18030D   25126.87337235  .00000151  00000+0  47003-4 0  9996
2 43252  86.3929 100.3096 0002331  92.7115 267.4347 14.34216999371954
IRIDIUM 145             
1 43253U 18030E   25126.86068327  .00000396  00000+0  13440-3 0  9997
2 43253  86.3929 100.2875 0002618  93.9674 266.1822 14.34216268371885
IRIDIUM 146             
1 43254U 18030F   25126.84166025 -.00000019  00000+0 -13713-4 0  9998
2 43254  86.3934 100.3097 0002493  93.9624 266.1857 14.34217419371893
IRIDIUM 148             
1 43255U 18030G   25126.39133786  .00000423  00000+0  14407-3 0  9994
2 43255  86.3929 100.5344 0002575  86.2848 273.8642 14.34216759371870
IRIDIUM 142             
1 43256U 18030H   25125.87124499  .00000416  00000+0  14131-3 0  9994
2 43256  86.3922 100.6559 0002724  93.5505 266.6003 14.34217612371757
