<?xml version="1.0" encoding="UTF-8"?>
<ndm xmlns:xsi="http://www.w3.org/2001/XMLSchema-instance" xsi:noNamespaceSchemaLocation="https://sanaregistry.org/r/ndmxml_unqualified/ndmxml-2.0.0-master-2.0.xsd">
<omm id="CCSDS_OMM_VERS" version="2.0">
<header><CREATION_DATE/><ORIGINATOR/></header><body><segment><metadata><OBJECT_NAME>IRIDIUM 144</OBJECT_NAME><OBJECT_ID>2018-030A</OBJECT_ID><CENTER_NAME>EARTH</CENTER_NAME><REF_FRAME>TEME</REF_FRAME><TIME_SYSTEM>UTC</TIME_SYSTEM><MEAN_ELEMENT_THEORY>SGP4</MEAN_ELEMENT_THEORY></metadata><data><meanElements><EPOCH>2025-05-06T04:49:31.473408</EPOCH><MEAN_MOTION>14.34217314</MEAN_MOTION><ECCENTRICITY>.0002385</ECCENTRICITY><INCLINATION>86.3927</INCLINATION><RA_OF_ASC_NODE>100.5613</RA_OF_ASC_NODE><ARG_OF_PERICENTER>90.5713</ARG_OF_PERICENTER><MEAN_ANOMALY>269.5756</MEAN_ANOMALY></meanElements><tleParameters><EPHEMERIS_TYPE>0</EPHEMERIS_TYPE><CLASSIFICATION_TYPE>U</CLASSIFICATION_TYPE><NORAD_CAT_ID>43249</NORAD_CAT_ID><ELEMENT_SET_NO>999</ELEMENT_SET_NO><REV_AT_EPOCH>37182</REV_AT_EPOCH><BSTAR>.12281E-3</BSTAR><MEAN_MOTION_DOT>.364E-5</MEAN_MOTION_DOT><MEAN_MOTION_DDOT>0</MEAN_MOTION_DDOT></tleParameters></data></segment></body></omm>
<omm id="CCSDS_OMM_VERS" version="2.0">
<header><CREATION_DATE/><ORIGINATOR/></header><body><segment><metadata><OBJECT_NAME>IRIDIUM 149</OBJECT_NAME><OBJECT_ID>2018-030B</OBJECT_ID><CENTER_NAME>EARTH</CENTER_NAME><REF_FRAME>TEME</REF_FRAME><TIME_SYSTEM>UTC</TIME_SYSTEM><MEAN_ELEMENT_THEORY>SGP4</MEAN_ELEMENT_THEORY></metadata><data><meanElements><EPOCH>2025-05-06T21:43:19.468416</EPOCH><MEAN_MOTION>14.34217108</MEAN_MOTION><ECCENTRICITY>.0002432</ECCENTRICITY><INCLINATION>86.3926</INCLINATION><RA_OF_ASC_NODE>100.2383</RA_OF_ASC_NODE><ARG_OF_PERICENTER>89.8786</ARG_OF_PERICENTER><MEAN_ANOMALY>270.2688</MEAN_ANOMALY></meanElements><tleParameters><EPHEMERIS_TYPE>0</EPHEMERIS_TYPE><CLASSIFICATION_TYPE>U</CLASSIFICATION_TYPE><NORAD_CAT_ID>43250</NORAD_CAT_ID><ELEMENT_SET_NO>999</ELEMENT_SET_NO><REV_AT_EPOCH>37192</REV_AT_EPOCH><BSTAR>.10122E-3</BSTAR><MEAN_MOTION_DOT>.303E-5</MEAN_MOTION_DOT><MEAN_MOTION_DDOT>0</MEAN_MOTION_DDOT></tleParameters></data></segment></body></omm>
<omm id="CCSDS_OMM_VERS" version="2.0">
<header><CREATION_DATE/><ORIGINATOR/></header><body><segment><metadata><OBJECT_NAME>IRIDIUM 157</OBJECT_NAME><OBJECT_ID>2018-030C</OBJECT_ID><CENTER_NAME>EARTH</CENTER_NAME><REF_FRAME>TEME</REF_FRAME><TIME_SYSTEM>UTC</TIME_SYSTEM><MEAN_ELEMENT_THEORY>SGP4</MEAN_ELEMENT_THEORY></metadata><data><meanElements><EPOCH>2025-05-06T20:30:15.251616</EPOCH><MEAN_MOTION>14.34218375</MEAN_MOTION><ECCENTRICITY>.0002253</ECCENTRICITY><INCLINATION>86.3928</INCLINATION><RA_OF_ASC_NODE>100.3038</RA_OF_ASC_NODE><ARG_OF_PERICENTER>81.3074</ARG_OF_PERICENTER><MEAN_ANOMALY>278.8377</MEAN_ANOMALY></meanElements><tleParameters><EPHEMERIS_TYPE>0</EPHEMERIS_TYPE><CLASSIFICATION_TYPE>U</CLASSIFICATION_TYPE><NORAD_CAT_ID>43251</NORAD_CAT_ID><ELEMENT_SET_NO>999</ELEMENT_SET_NO><REV_AT_EPOCH>37189</REV_AT_EPOCH><BSTAR>.93859E-5</BSTAR><MEAN_MOTION_DOT>.46E-6</MEAN_MOTION_DOT><MEAN_MOTION_DDOT>0</MEAN_MOTION_DDOT></tleParameters></data></segment></body></omm>
<omm id="CCSDS_OMM_VERS" version="2.0">
<header><CREATION_DATE/><ORIGINATOR/></header><body><segment><metadata><OBJECT_NAME>IRIDIUM 140</OBJECT_NAME><OBJECT_ID>2018-030D</OBJECT_ID><CENTER_NAME>EARTH</CENTER_NAME><REF_FRAME>TEME</REF_FRAME><TIME_SYSTEM>UTC</TIME_SYSTEM><MEAN_ELEMENT_THEORY>SGP4</MEAN_ELEMENT_THEORY></metadata><data><meanElements><EPOCH>2025-05-06T20:57:39.371040</EPOCH><MEAN_MOTION>14.34216999</MEAN_MOTION><ECCENTRICITY>.0002331</ECCENTRICITY><INCLINATION>86.3929</INCLINATION><RA_OF_ASC_NODE>100.3096</RA_OF_ASC_NODE><ARG_OF_PERICENTER>92.7115</ARG_OF_PERICENTER><MEAN_ANOMALY>267.4347</MEAN_ANOMALY></meanElements><tleParameters><EPHEMERIS_TYPE>0</EPHEMERIS_TYPE><CLASSIFICATION_TYPE>U</CLASSIFICATION_TYPE><NORAD_CAT_ID>43252</NORAD_CAT_ID><ELEMENT_SET_NO>999</ELEMENT_SET_NO><REV_AT_EPOCH>37195</REV_AT_EPOCH><BSTAR>.47003E-4</BSTAR><MEAN_MOTION_DOT>.151E-5</MEAN_MOTION_DOT><MEAN_MOTION_DDOT>0</MEAN_MOTION_DDOT></tleParameters></data></segment></body></omm>
<omm id="CCSDS_OMM_VERS" version="2.0">
<header><CREATION_DATE/><ORIGINATOR/></header><body><segment><metadata><OBJECT_NAME>IRIDIUM 145</OBJECT_NAME><OBJECT_ID>2018-030E</OBJECT_ID><CENTER_NAME>EARTH</CENTER_NAME><REF_FRAME>TEME</REF_FRAME><TIME_SYSTEM>UTC</TIME_SYSTEM><MEAN_ELEMENT_THEORY>SGP4</MEAN_ELEMENT_THEORY></metadata><data><meanElements><EPOCH>2025-05-06T20:39:23.034528</EPOCH><MEAN_MOTION>14.34216268</MEAN_MOTION><ECCENTRICITY>.0002618</ECCENTRICITY><INCLINATION>86.3929</INCLINATION><RA_OF_ASC_NODE>100.2875</RA_OF_ASC_NODE><ARG_OF_PERICENTER>93.9674</ARG_OF_PERICENTER><MEAN_ANOMALY>266.1822</MEAN_ANOMALY></meanElements><tleParameters><EPHEMERIS_TYPE>0</EPHEMERIS_TYPE><CLASSIFICATION_TYPE>U</CLASSIFICATION_TYPE><NORAD_CAT_ID>43253</NORAD_CAT_ID><ELEMENT_SET_NO>999</ELEMENT_SET_NO><REV_AT_EPOCH>37188</REV_AT_EPOCH><BSTAR>.1344E-3</BSTAR><MEAN_MOTION_DOT>.396E-5</MEAN_MOTION_DOT><MEAN_MOTION_DDOT>0</MEAN_MOTION_DDOT></tleParameters></data></segment></body></omm>
<omm id="CCSDS_OMM_VERS" version="2.0">
<header><CREATION_DATE/><ORIGINATOR/></header><body><segment><metadata><OBJECT_NAME>IRIDIUM 146</OBJECT_NAME><OBJECT_ID>2018-030F</OBJECT_ID><CENTER_NAME>EARTH</CENTER_NAME><REF_FRAME>TEME</REF_FRAME><TIME_SYSTEM>UTC</TIME_SYSTEM><MEAN_ELEMENT_THEORY>SGP4</MEAN_ELEMENT_THEORY></metadata><data><meanElements><EPOCH>2025-05-06T20:11:59.445600</EPOCH><MEAN_MOTION>14.34217419</MEAN_MOTION><ECCENTRICITY>.0002493</ECCENTRICITY><INCLINATION>86.3934</INCLINATION><RA_OF_ASC_NODE>100.3097</RA_OF_ASC_NODE><ARG_OF_PERICENTER>93.9624</ARG_OF_PERICENTER><MEAN_ANOMALY>266.1857</MEAN_ANOMALY></meanElements><tleParameters><EPHEMERIS_TYPE>0</EPHEMERIS_TYPE><CLASSIFICATION_TYPE>U</CLASSIFICATION_TYPE><NORAD_CAT_ID>43254</NORAD_CAT_ID><ELEMENT_SET_NO>999</ELEMENT_SET_NO><REV_AT_EPOCH>37189</REV_AT_EPOCH><BSTAR>-.13713E-4</BSTAR><MEAN_MOTION_DOT>-.19E-6</MEAN_MOTION_DOT><MEAN_MOTION_DDOT>0</MEAN_MOTION_DDOT></tleParameters></data></segment></body></omm>
<omm id="CCSDS_OMM_VERS" version="2.0">
<header><CREATION_DATE/><ORIGINATOR/></header><body><segment><metadata><OBJECT_NAME>IRIDIUM 148</OBJECT_NAME><OBJECT_ID>2018-030G</OBJECT_ID><CENTER_NAME>EARTH</CENTER_NAME><REF_FRAME>TEME</REF_FRAME><TIME_SYSTEM>UTC</TIME_SYSTEM><MEAN_ELEMENT_THEORY>SGP4</MEAN_ELEMENT_THEORY></metadata><data><meanElements><EPOCH>2025-05-06T09:23:31.591104</EPOCH><MEAN_MOTION>14.34216759</MEAN_MOTION><ECCENTRICITY>.0002575</ECCENTRICITY><INCLINATION>86.3929</INCLINATION><RA_OF_ASC_NODE>100.5344</RA_OF_ASC_NODE><ARG_OF_PERICENTER>86.2848</ARG_OF_PERICENTER><MEAN_ANOMALY>273.8642</MEAN_ANOMALY></meanElements><tleParameters><EPHEMERIS_TYPE>0</EPHEMERIS_TYPE><CLASSIFICATION_TYPE>U</CLASSIFICATION_TYPE><NORAD_CAT_ID>43255</NORAD_CAT_ID><ELEMENT_SET_NO>999</ELEMENT_SET_NO><REV_AT_EPOCH>37187</REV_AT_EPOCH><BSTAR>.14407E-3</BSTAR><MEAN_MOTION_DOT>.423E-5</MEAN_MOTION_DOT><MEAN_MOTION_DDOT>0</MEAN_MOTION_DDOT></tleParameters></data></segment></body></omm>
<omm id="CCSDS_OMM_VERS" version="2.0">
<header><CREATION_DATE/><ORIGINATOR/></header><body><segment><metadata><OBJECT_NAME>IRIDIUM 142</OBJECT_NAME><OBJECT_ID>2018-030H</OBJECT_ID><CENTER_NAME>EARTH</CENTER_NAME><REF_FRAME>TEME</REF_FRAME><TIME_SYSTEM>UTC</TIME_SYSTEM><MEAN_ELEMENT_THEORY>SGP4</MEAN_ELEMENT_THEORY></metadata><data><meanElements><EPOCH>2025-05-05T20:54:35.567136</EPOCH><MEAN_MOTION>14.34217612</MEAN_MOTION><ECCENTRICITY>.0002724</ECCENTRICITY><INCLINATION>86.3922</INCLINATION><RA_OF_ASC_NODE>100.6559</RA_OF_ASC_NODE><ARG_OF_PERICENTER>93.5505</ARG_OF_PERICENTER><MEAN_ANOMALY>266.6003</MEAN_ANOMALY></meanElements><tleParameters><EPHEMERIS_TYPE>0</EPHEMERIS_TYPE><CLASSIFICATION_TYPE>U</CLASSIFICATION_TYPE><NORAD_CAT_ID>43256</NORAD_CAT_ID><ELEMENT_SET_NO>999</ELEMENT_SET_NO><REV_AT_EPOCH>37175</REV_AT_EPOCH><BSTAR>.14131E-3</BSTAR><MEAN_MOTION_DOT>.416E-5</MEAN_MOTION_DOT><MEAN_MOTION_DDOT>0</MEAN_MOTION_DDOT></tleParameters></data></segment></body></omm>

</ndm>
